SL-3 R/B                
1 13403U 82079B   26093.92887421  .00010243  00000+0  40382-3 0  9997
2 13403  81.1475 163.2743 0025431  82.0522 278.3596 15.25147914381549
SL-14 R/B               
1 13553U 82092B   26093.55666280  .00000716  00000+0  77610-4 0  9994
2 13553  82.5651 118.1350 0019393 215.0194 259.5108 14.86690469332621
SL-3 R/B                
1 13819U 83010B   26093.73159984  .00023200  00000+0  45266-3 0  9992
2 13819  81.1033 331.5289 0015480 323.9367  36.0832 15.47228926361819
SL-3 R/B                
1 14208U 83075B   26093.91929227  .00018898  00000+0  48588-3 0  9998
2 14208  97.6135  99.4635 0022798 135.9332 224.3735 15.39053620334031
COSMOS 1536             
1 14699U 84013A   26093.93300357  .00012020  00000+0  49059-3 0  9999
2 14699  82.5420  82.7432 0014030 185.5522 174.5563 15.24198703276460
SL-14 R/B               
1 14820U 84027B   26093.80979109  .00000880  00000+0  97780-4 0  9999
2 14820  82.5426 221.4525 0016617 248.5391 111.4054 14.86005939251366
SL-8 R/B                
1 15483U 85006B   26093.78580179  .00000485  00000+0  16926-3 0  9998
2 15483  74.0460 214.9674 0017475 125.2686 346.4170 14.37802490157636
SL-12 R/B(2)            
1 15772U 85042D   26093.94962690  .00000239  00000+0  12903-3 0  9997
2 15772  71.1099  34.3595 0032834  86.1802 342.0635 14.21990299117980
SL-14 R/B               
1 15945U 85069B   26093.78691560  .00000821  00000+0  89774-4 0  9993
2 15945  82.5304   1.3406 0020290 107.7626 252.5807 14.86462344176560
SL-16 R/B               
1 16182U 85097B   26093.98451579 -.00000158  00000+0 -55320-4 0  9999
2 16182  71.0008  87.2982 0009220 229.5855 196.8733 14.16602693 90814
SL-14 R/B               
1 16496U 86006B   26093.89212687  .00001498  00000+0  15647-3 0  9996
2 16496  82.5261 236.0132 0076278 188.0699 171.9299 14.86861725152958
COSMOS 1743             
1 16719U 86034A   26093.92191085  .00075886  00000+0  90150-3 0  9991
2 16719  82.5323  47.3065 0005575 156.1840 203.9676 15.60871616184187
