CCSDS_OMM_VERS = 2.0
CREATION_DATE  = 
ORIGINATOR     = 

OBJECT_NAME    = SL-3 R/B
OBJECT_ID      = 1982-079B
CENTER_NAME    = EARTH
REF_FRAME      = TEME
TIME_SYSTEM    = UTC
MEAN_ELEMENT_THEORY = SGP/SGP4

EPOCH          = 2026-04-03T22:17:34.731744
MEAN_MOTION    = 15.25147914
ECCENTRICITY   = .00254317
INCLINATION    = 81.1475
RA_OF_ASC_NODE = 163.2743
ARG_OF_PERICENTER = 82.0522
MEAN_ANOMALY   = 278.3596

EPHEMERIS_TYPE = 0
CLASSIFICATION_TYPE = U
NORAD_CAT_ID   = 13403
ELEMENT_SET_NO = 999
REV_AT_EPOCH   = 38154
BSTAR          = .40381935E-3
MEAN_MOTION_DOT = .10243E-3
MEAN_MOTION_DDOT = 0

CCSDS_OMM_VERS = 2.0
CREATION_DATE  = 
ORIGINATOR     = 

OBJECT_NAME    = SL-14 R/B
OBJECT_ID      = 1982-092B
CENTER_NAME    = EARTH
REF_FRAME      = TEME
TIME_SYSTEM    = UTC
MEAN_ELEMENT_THEORY = SGP/SGP4

EPOCH          = 2026-04-03T13:21:35.665920
MEAN_MOTION    = 14.86690469
ECCENTRICITY   = .00193938
INCLINATION    = 82.5651
RA_OF_ASC_NODE = 118.1350
ARG_OF_PERICENTER = 215.0194
MEAN_ANOMALY   = 259.5108

EPHEMERIS_TYPE = 0
CLASSIFICATION_TYPE = U
NORAD_CAT_ID   = 13553
ELEMENT_SET_NO = 999
REV_AT_EPOCH   = 33262
BSTAR          = .7761017E-4
MEAN_MOTION_DOT = .716E-5
MEAN_MOTION_DDOT = 0

CCSDS_OMM_VERS = 2.0
CREATION_DATE  = 
ORIGINATOR     = 

OBJECT_NAME    = SL-3 R/B
OBJECT_ID      = 1983-010B
CENTER_NAME    = EARTH
REF_FRAME      = TEME
TIME_SYSTEM    = UTC
MEAN_ELEMENT_THEORY = SGP/SGP4

EPOCH          = 2026-04-03T17:33:30.226176
MEAN_MOTION    = 15.47228926
ECCENTRICITY   = .00154804
INCLINATION    = 81.1033
RA_OF_ASC_NODE = 331.5289
ARG_OF_PERICENTER = 323.9367
MEAN_ANOMALY   = 36.0832

EPHEMERIS_TYPE = 0
CLASSIFICATION_TYPE = U
NORAD_CAT_ID   = 13819
ELEMENT_SET_NO = 999
REV_AT_EPOCH   = 36181
BSTAR          = .45266313E-3
MEAN_MOTION_DOT = .232E-3
MEAN_MOTION_DDOT = 0

CCSDS_OMM_VERS = 2.0
CREATION_DATE  = 
ORIGINATOR     = 

OBJECT_NAME    = SL-3 R/B
OBJECT_ID      = 1983-075B
CENTER_NAME    = EARTH
REF_FRAME      = TEME
TIME_SYSTEM    = UTC
MEAN_ELEMENT_THEORY = SGP/SGP4

EPOCH          = 2026-04-03T22:03:46.852128
MEAN_MOTION    = 15.39053620
ECCENTRICITY   = .00227981
INCLINATION    = 97.6135
RA_OF_ASC_NODE = 99.4635
ARG_OF_PERICENTER = 135.9332
MEAN_ANOMALY   = 224.3735

EPHEMERIS_TYPE = 0
CLASSIFICATION_TYPE = U
NORAD_CAT_ID   = 14208
ELEMENT_SET_NO = 999
REV_AT_EPOCH   = 33403
BSTAR          = .48587967E-3
MEAN_MOTION_DOT = .18898E-3
MEAN_MOTION_DDOT = 0

CCSDS_OMM_VERS = 2.0
CREATION_DATE  = 
ORIGINATOR     = 

OBJECT_NAME    = COSMOS 1536
OBJECT_ID      = 1984-013A
CENTER_NAME    = EARTH
REF_FRAME      = TEME
TIME_SYSTEM    = UTC
MEAN_ELEMENT_THEORY = SGP/SGP4

EPOCH          = 2026-04-03T22:23:31.508448
MEAN_MOTION    = 15.24198703
ECCENTRICITY   = .001403
INCLINATION    = 82.5420
RA_OF_ASC_NODE = 82.7432
ARG_OF_PERICENTER = 185.5522
MEAN_ANOMALY   = 174.5563

EPHEMERIS_TYPE = 0
CLASSIFICATION_TYPE = U
NORAD_CAT_ID   = 14699
ELEMENT_SET_NO = 999
REV_AT_EPOCH   = 27646
BSTAR          = .49059088E-3
MEAN_MOTION_DOT = .1202E-3
MEAN_MOTION_DDOT = 0

CCSDS_OMM_VERS = 2.0
CREATION_DATE  = 
ORIGINATOR     = 

OBJECT_NAME    = SL-14 R/B
OBJECT_ID      = 1984-027B
CENTER_NAME    = EARTH
REF_FRAME      = TEME
TIME_SYSTEM    = UTC
MEAN_ELEMENT_THEORY = SGP/SGP4

EPOCH          = 2026-04-03T19:26:05.950176
MEAN_MOTION    = 14.86005939
ECCENTRICITY   = .00166172
INCLINATION    = 82.5426
RA_OF_ASC_NODE = 221.4525
ARG_OF_PERICENTER = 248.5391
MEAN_ANOMALY   = 111.4054

EPHEMERIS_TYPE = 0
CLASSIFICATION_TYPE = U
NORAD_CAT_ID   = 14820
ELEMENT_SET_NO = 999
REV_AT_EPOCH   = 25136
BSTAR          = .97779828E-4
MEAN_MOTION_DOT = .88E-5
MEAN_MOTION_DDOT = 0

CCSDS_OMM_VERS = 2.0
CREATION_DATE  = 
ORIGINATOR     = 

OBJECT_NAME    = SL-8 R/B
OBJECT_ID      = 1985-006B
CENTER_NAME    = EARTH
REF_FRAME      = TEME
TIME_SYSTEM    = UTC
MEAN_ELEMENT_THEORY = SGP/SGP4

EPOCH          = 2026-04-03T18:51:33.274656
MEAN_MOTION    = 14.37802490
ECCENTRICITY   = .00174759
INCLINATION    = 74.0460
RA_OF_ASC_NODE = 214.9674
ARG_OF_PERICENTER = 125.2686
MEAN_ANOMALY   = 346.4170

EPHEMERIS_TYPE = 0
CLASSIFICATION_TYPE = U
NORAD_CAT_ID   = 15483
ELEMENT_SET_NO = 999
REV_AT_EPOCH   = 15763
BSTAR          = .1692627E-3
MEAN_MOTION_DOT = .485E-5
MEAN_MOTION_DDOT = 0

CCSDS_OMM_VERS = 2.0
CREATION_DATE  = 
ORIGINATOR     = 

OBJECT_NAME    = SL-12 R/B(2)
OBJECT_ID      = 1985-042D
CENTER_NAME    = EARTH
REF_FRAME      = TEME
TIME_SYSTEM    = UTC
MEAN_ELEMENT_THEORY = SGP/SGP4

EPOCH          = 2026-04-03T22:47:27.764160
MEAN_MOTION    = 14.21990299
ECCENTRICITY   = .00328345
INCLINATION    = 71.1099
RA_OF_ASC_NODE = 34.3595
ARG_OF_PERICENTER = 86.1802
MEAN_ANOMALY   = 342.0635

EPHEMERIS_TYPE = 0
CLASSIFICATION_TYPE = U
NORAD_CAT_ID   = 15772
ELEMENT_SET_NO = 999
REV_AT_EPOCH   = 11798
BSTAR          = .12902603E-3
MEAN_MOTION_DOT = .239E-5
MEAN_MOTION_DDOT = 0

CCSDS_OMM_VERS = 2.0
CREATION_DATE  = 
ORIGINATOR     = 

OBJECT_NAME    = SL-14 R/B
OBJECT_ID      = 1985-069B
CENTER_NAME    = EARTH
REF_FRAME      = TEME
TIME_SYSTEM    = UTC
MEAN_ELEMENT_THEORY = SGP/SGP4

EPOCH          = 2026-04-03T18:53:09.507840
MEAN_MOTION    = 14.86462344
ECCENTRICITY   = .00202906
INCLINATION    = 82.5304
RA_OF_ASC_NODE = 1.3406
ARG_OF_PERICENTER = 107.7626
MEAN_ANOMALY   = 252.5807

EPHEMERIS_TYPE = 0
CLASSIFICATION_TYPE = U
NORAD_CAT_ID   = 15945
ELEMENT_SET_NO = 999
REV_AT_EPOCH   = 17656
BSTAR          = .89773634E-4
MEAN_MOTION_DOT = .821E-5
MEAN_MOTION_DDOT = 0

CCSDS_OMM_VERS = 2.0
CREATION_DATE  = 
ORIGINATOR     = 

OBJECT_NAME    = SL-16 R/B
OBJECT_ID      = 1985-097B
CENTER_NAME    = EARTH
REF_FRAME      = TEME
TIME_SYSTEM    = UTC
MEAN_ELEMENT_THEORY = SGP/SGP4

EPOCH          = 2026-04-03T23:37:42.164256
MEAN_MOTION    = 14.16602693
ECCENTRICITY   = .00092203
INCLINATION    = 71.0008
RA_OF_ASC_NODE = 87.2982
ARG_OF_PERICENTER = 229.5855
MEAN_ANOMALY   = 196.8733

EPHEMERIS_TYPE = 0
CLASSIFICATION_TYPE = U
NORAD_CAT_ID   = 16182
ELEMENT_SET_NO = 999
REV_AT_EPOCH   = 9081
BSTAR          = -.55319792E-4
MEAN_MOTION_DOT = -.158E-5
MEAN_MOTION_DDOT = 0

CCSDS_OMM_VERS = 2.0
CREATION_DATE  = 
ORIGINATOR     = 

OBJECT_NAME    = SL-14 R/B
OBJECT_ID      = 1986-006B
CENTER_NAME    = EARTH
REF_FRAME      = TEME
TIME_SYSTEM    = UTC
MEAN_ELEMENT_THEORY = SGP/SGP4

EPOCH          = 2026-04-03T21:24:39.761568
MEAN_MOTION    = 14.86861725
ECCENTRICITY   = .0076278
INCLINATION    = 82.5261
RA_OF_ASC_NODE = 236.0132
ARG_OF_PERICENTER = 188.0699
MEAN_ANOMALY   = 171.9299

EPHEMERIS_TYPE = 0
CLASSIFICATION_TYPE = U
NORAD_CAT_ID   = 16496
ELEMENT_SET_NO = 999
REV_AT_EPOCH   = 15295
BSTAR          = .15646501E-3
MEAN_MOTION_DOT = .1498E-4
MEAN_MOTION_DDOT = 0

CCSDS_OMM_VERS = 2.0
CREATION_DATE  = 
ORIGINATOR     = 

OBJECT_NAME    = COSMOS 1743
OBJECT_ID      = 1986-034A
CENTER_NAME    = EARTH
REF_FRAME      = TEME
TIME_SYSTEM    = UTC
MEAN_ELEMENT_THEORY = SGP/SGP4

EPOCH          = 2026-04-03T22:07:33.097440
MEAN_MOTION    = 15.60871616
ECCENTRICITY   = .00055757
INCLINATION    = 82.5323
RA_OF_ASC_NODE = 47.3065
ARG_OF_PERICENTER = 156.1840
MEAN_ANOMALY   = 203.9676

EPHEMERIS_TYPE = 0
CLASSIFICATION_TYPE = U
NORAD_CAT_ID   = 16719
ELEMENT_SET_NO = 999
REV_AT_EPOCH   = 18418
BSTAR          = .90150041E-3
MEAN_MOTION_DOT = .75886E-3
MEAN_MOTION_DDOT = 0

